CSS (TIANHE)            
1 48274U 21035A   24104.32747639  .00001344  00000+0  17527-4 0  9995
2 48274  41.4685 119.3676 0007721 347.7020  12.3631 15.63991685168945
